XRISM                   
1 57800U 23137A   24075.90238020  .00004511  00000+0  34826-3 0  9994
2 57800  31.0022 245.8429 0010218   5.0348 355.0389 14.99917308 28583
